[{"OBJECT_NAME":"KUIPER-00137","OBJECT_ID":"2025-228S","EPOCH":"2026-03-09T22:00:01.999584","MEAN_MOTION":14.78448948,"ECCENTRICITY":0.00017475,"INCLINATION":51.9044,"RA_OF_ASC_NODE":344.5648,"ARG_OF_PERICENTER":152.1073,"MEAN_ANOMALY":242.2792,"EPHEMERIS_TYPE":0,"CLASSIFICATION_TYPE":"U","NORAD_CAT_ID":65963,"ELEMENT_SET_NO":999,"REV_AT_EPOCH":474,"BSTAR":-0.0032569559,"MEAN_MOTION_DOT":-0.00024103,"MEAN_MOTION_DDOT":0},{"OBJECT_NAME":"FENGYUN 1C DEB","OBJECT_ID":"1999-025CXY","EPOCH":"2026-03-08T03:52:40.652832","MEAN_MOTION":14.79881219,"ECCENTRICITY":0.00110174,"INCLINATION":99.1801,"RA_OF_ASC_NODE":51.208,"ARG_OF_PERICENTER":222.0126,"MEAN_ANOMALY":138.0238,"EPHEMERIS_TYPE":0,"CLASSIFICATION_TYPE":"U","NORAD_CAT_ID":32331,"ELEMENT_SET_NO":999,"REV_AT_EPOCH":61878,"BSTAR":0.008104872,"MEAN_MOTION_DOT":0.00061681,"MEAN_MOTION_DDOT":0}]
